#dP2018  4 22  0  0  0.00000000      96 __u+U IGS08 FIT  IAC
## 1998      0.00000000   900.00000000 58230 0.0000000000000
+   86   C01C02C03C04C05C06C07C08C09C10C11C12C13C14E01E02E03
+        E04E05E07E08E09E11E12E14E18E19E24E26E30G01G02G03G05
+        G06G07G08G09G10G11G12G13G14G15G16G17G18G19G20G21G22
+        G23G24G25G26G27G28G29G30G31G32J01J02J03R01R02R03R04
+        R07R08R09R10R11R13R14R15R16R17R18R19R20R21R22R23R24
+        R26  0  0  0  0  0  0  0  0  0  0  0  0  0  0  0  0
++        12 12 13 13 12  8  8  8  8  8  7  8  8  8  7  7  7
++         7  7  7  7  7  7  7  7  7  7  7  7  7  3  3  3  3
++         3  3  9  3  3  3  3  3  3  3  3  3  3  3  3  3  3
++         3  3  3  3  3  3  3  3  3  3  9 11 12  5  5  5  5
++         5  5  5  5  5  5  5  5  5  5  5  5  5  5  5  5  5
++         8  0  0  0  0  0  0  0  0  0  0  0  0  0  0  0  0
%c M  cc GPS ccc cccc cccc cccc cccc ccccc ccccc ccccc ccccc
%c cc cc ccc ccc cccc cccc cccc cccc ccccc ccccc ccccc ccccc
%f  1.2500000  1.025000000  0.00000000000  0.000000000000000
%f  0.0000000  0.000000000  0.00000000000  0.000000000000000
%i    0    0    0    0      0      0      0      0         0
%i    0    0    0    0      0      0      0      0         0
/* INFORMATION & ANALYSIS CENTER (IAC)            FINAL DATA
/* S/V CLOCKS ARE ALIGNED TO GPS & GLONASS TIME RESPECTIVELY
/* USING THE BROADCAST EPHEMERIS                            
/* PCV:IGS14_1992 OL/AL:FES2004  NONE     YN ORB:CoN CLK:CoN
*  2018 04 22  6 30  0.00000000
PC01 -32231.336878  27154.033657   1095.346298    642.581653
PC02   4346.986086  41926.651953   -963.812524    588.175141
PC03 -14871.605225  39419.363618    690.430685   -392.004637
PC04 -39628.461651  14439.057970    504.528829   -219.504876
PC05  21892.511155  35997.275662  -1309.880939     45.373716
PC06  -6941.696697  30480.169145 -27870.669136      0.112799
PC07 -19024.835491  22793.763005  29876.870284    179.312781
PC08 -21934.724387  36136.607519   -857.156939    299.252174
PC09   5446.529319  38494.187694 -15720.204721   -197.868365
PC10  -3447.109814  25496.087186  33487.461310   -176.037828
PC11  -9914.090106  23685.493085  11067.792830   -477.913412
PC12 -15594.882163   5499.184122  22549.020418    421.558111
PC13 -11287.620293  37922.274126 -14868.051424   -299.264713
PC14 -10259.840548  12359.655177 -22759.249957    424.712025
PE01 -28316.403372   6080.618860   6101.354158   -327.387452
PE02  28302.478874  -6107.181502  -6142.147494     11.347931
PE03  18035.976347  -2876.978144  23302.110989    -23.757530
PE04  -4112.794126  20520.299700 -20921.366879    -19.324178
PE05  21426.499884  16506.838653  12028.145057    279.797765
PE07 -12262.720167 -26199.316088   6278.368546     45.988262
PE08   3842.369025 -20473.228414  21035.604675   6599.527403
PE09  12539.613515  26060.941062  -6319.604032   6813.127504
PE11   1760.591577  23787.988398 -17509.062200   1833.168304
PE12 -12820.586952  26662.673829    247.205798   3992.159611
PE14 -14225.260740   5197.928662  17820.837535   6595.113331
PE18  19396.462235  -9495.322724 -24394.354913   6263.880650
PE19 -18783.376773    917.621810 -22852.272148     21.583118
PE24   8600.222847  15119.361961  23931.485051   6746.152568
PE26 -14843.847252  -7470.093247  24501.956849   6022.289532
PE30  13920.752397 -15021.729609 -21382.680725   5900.688883
PG01  -9720.560418  20307.755893 -13988.882524    -42.414089
PG02  21506.870311 -13764.627796  -6259.662460    137.377998
PG03  -1276.166287  15572.459232 -21503.743375     55.649385
PG05  20816.536445  -4766.966179  15824.187714     -9.390405
PG06  20179.135791  -1475.396989 -17184.364804    407.632778
PG07   5958.945704  14577.701035  21542.877211    203.646882
PG08  -6056.174745  21528.445540  14260.508713    -98.693911
PG09   8408.413095  24574.236478   5488.859848    511.934494
PG10 -24172.946971 -10905.275665   2630.021390    180.568224
PG11  -7346.395584  25058.113079  -5814.485699   -737.234238
PG12   4542.408172 -14079.229825 -22253.020308    338.152303
PG13  12484.336788 -13447.598677  19092.308092    -94.977404
PG14 -15194.490632  -2300.590419 -21390.280225    -96.355810
PG15   4655.199998 -22173.433764  13334.751368   -355.184175
PG16 -21079.267596   1887.260149  16153.745618     27.002883
PG17  14023.586969  11921.930506 -18807.511792   -104.796318
PG18 -15691.283174  20410.234292  -6566.617876     -0.111333
PG19  14953.937795   4101.422270 -21827.132243   -441.897241
PG20  -7843.994744 -16696.993681  19016.165061    506.385805
PG21  -9729.848845 -12718.099537  21998.904963   -404.408662
PG22 -10752.878582  12779.666679 -20402.482178   -366.299192
PG23   -405.385182  25356.660978  -6828.701668   -217.769816
PG24  11917.641213 -21100.373113 -10650.916801    -48.819433
PG25 -10506.300246 -16924.191277 -17864.816689   -573.466436
PG26 -25414.919673  -3714.175385   7021.092296   -174.321330
PG27 -12939.122009   9125.136624  21206.158937    370.100181
PG28  21461.321281  14625.563027   6057.010809    708.544771
PG29  -4608.968354 -26022.367675   2744.211685    462.283721
PG30  14421.361375   8063.651325  20826.846248     82.144135
PG31 -21273.242357   2492.668707 -15932.694344    126.787118
PG32 -15065.348435 -12387.228715 -18032.423691   -518.171113
PJ01 -26522.887317  16775.910093 -23524.724474   -293.986641
PJ02 -30881.543919  27465.115115  13293.818236      1.171095
PJ03 -26155.857639  24545.856444  27240.501854    -16.029231
PR01  -6636.277535   9044.373328 -22903.165887     25.160943
PR02   9838.254270  19351.763819 -13312.543751    306.050252
PR03  18763.638280  16819.495267   3868.136895    130.130678
PR04  16533.255750   4081.321409  19004.790020    258.099809
PR07 -18827.263747 -16719.383440  -4155.143380    -35.745892
PR08 -16808.659653  -4721.411219 -18542.482274    -13.792548
PR09   -369.565351 -11257.362295 -22881.492945     32.776075
PR10 -17611.493516  -4340.396358 -17923.274198     22.985922
PR11 -24919.894009   5010.156706  -1845.076953    -27.030310
PR13    917.802835  10891.495864  23023.083986     -9.670082
PR14  17572.724700   4532.954132  17935.830021     26.555152
PR15  24607.504117  -3091.638226   5738.469931     -9.111417
PR16  17630.544229 -11575.091970 -14291.136890     90.805791
PR17   6541.827753  12500.549457 -21246.446550    126.638602
PR18  12018.185168  -5545.622276 -21804.117822    192.806228
PR19  11282.320848 -20518.873784 -10124.680274    -50.645153
PR20   3394.533099 -23755.923013   8742.962304   -335.256577
PR21  -6649.003880 -12146.705919  21421.350979     19.746736
PR22 -12204.127389   7375.256411  21119.091900    -36.921859
PR23  -9841.347773  22577.352003   6613.496718    149.199388
PR24  -2472.063493  23518.202445  -9555.465408   -165.337486
PR26   3189.057510 -23932.244099   8219.072810     14.318127
EOF
